OBJECT_NAME,OBJECT_ID,EPOCH,MEAN_MOTION,ECCENTRICITY,INCLINATION,RA_OF_ASC_NODE,ARG_OF_PERICENTER,MEAN_ANOMALY,EPHEMERIS_TYPE,CLASSIFICATION_TYPE,NORAD_CAT_ID,ELEMENT_SET_NO,REV_AT_EPOCH,BSTAR,MEAN_MOTION_DOT,MEAN_MOTION_DDOT
PROBA-1,2001-049B,2026-07-05T06:10:07.341888,15.07577807,.00562327,97.9595,195.4213,62.5747,298.1184,0,U,26958,999,34634,.19801059E-3,.305E-4,0
CUTE-1 (CO-55),2003-031E,2026-07-05T00:29:40.228800,14.24347366,.00105291,98.6737,194.3551,129.0136,231.1982,0,U,27844,999,19421,.18868701E-3,.393E-5,0
CUBESAT XI-IV (CO-57),2003-031J,2026-07-04T22:44:44.423232,14.23630898,.00101029,98.6769,193.9817,146.4963,213.6856,0,U,27848,999,19390,.16663671E-3,.336E-5,0
APRIZESAT 4,2009-041D,2026-07-04T23:47:42.201888,14.83904740,.00419087,98.1407,261.6666,263.6179,96.0261,0,U,35684,999,91400,.12648799E-3,.1007E-4,0
APRIZESAT 3,2009-041F,2026-07-04T16:28:54.201216,14.96290082,.00617043,98.2081,339.7511,10.3583,349.8892,0,U,35686,999,91899,.15457801E-3,.1745E-4,0
PROBA-2,2009-059B,2026-07-04T23:37:43.949280,14.54870751,.00123411,98.2456,9.0909,221.6439,138.3819,0,U,36037,999,88411,.74882749E-4,.276E-5,0
APRIZESAT 5,2011-044E,2026-07-04T18:36:02.058048,14.81114907,.00510356,98.2449,119.3143,307.1467,52.5088,0,U,37792,999,80139,.17570458E-3,.1335E-4,0
APRIZESAT 6,2011-044F,2026-07-04T16:38:07.867968,14.76945681,.00438671,98.2348,96.5492,31.5223,26.4833,0,U,37793,999,79973,.16785903E-3,.1144E-4,0
PROBA-V,2013-021A,2026-07-04T16:34:03.414720,14.23601984,.00054192,98.3596,163.4337,83.5847,276.5949,0,U,39159,999,68360,.98029814E-4,.182E-5,0
APRIZESAT 7,2013-066A,2026-07-04T20:44:35.798208,14.91603631,.0036535,97.7716,138.8310,150.5113,209.8177,0,U,39416,999,68386,.14782321E-3,.1445E-4,0
APRIZESAT 8,2013-066K,2026-07-04T07:01:50.068704,14.87683163,.00446843,97.8225,132.5230,228.3816,131.3569,0,U,39425,999,68221,.11503882E-3,.1009E-4,0
BUGSAT-1 (TITA),2014-033E,2026-07-05T06:10:31.493280,15.15805500,.00290059,98.0432,279.8651,118.2915,242.1248,0,U,40014,999,65857,.47806088E-3,.9158E-4,0
SAUDISAT 4,2014-033G,2026-07-04T08:44:30.634944,14.79566664,.004518,97.7605,330.9067,19.3039,340.9871,0,U,40016,999,64861,.99303275E-4,.704E-5,0
APRIZESAT 9,2014-033J,2026-07-05T04:39:35.149248,14.74243337,.00670025,97.9083,318.9547,141.5261,219.0753,0,U,40018,999,64621,.15951652E-3,.104E-4,0
APRIZESAT 10,2014-033K,2026-07-04T19:31:47.701920,14.70902974,.00779577,97.9672,312.3822,216.6992,142.8862,0,U,40019,999,64484,.14803659E-3,.896E-5,0
TECHDEMOSAT-1 (TDS-1),2014-037H,2026-07-04T22:39:08.864640,15.13574703,.00059464,98.3820,179.9199,192.6898,167.4182,0,U,40076,999,65091,.82212031E-3,.14697E-3,0
TECHNOSAT,2017-042E,2026-07-04T09:40:02.912736,15.05060639,.00183616,97.4295,342.4079,38.8688,321.3855,0,U,42829,999,48929,.29530992E-3,.4153E-4,0
FLYING LAPTOP,2017-042G,2026-07-05T07:34:37.972992,15.01267652,.00199732,97.4777,341.1600,63.9242,296.4036,0,U,42831,999,48917,.41620031E-3,.5315E-4,0
HAWK-A,2018-099H,2026-07-04T22:28:03.487872,15.24869219,.00337128,97.3899,237.9420,220.5831,139.2893,0,U,43765,999,41580,.46599763E-3,.11705E-3,0
HAWK-B,2018-099AN,2026-07-04T14:01:59.560896,15.23026356,.00305285,97.3945,236.9736,240.5702,119.2487,0,U,43794,999,41568,.45148426E-3,.10696E-3,0
HAWK-C,2018-099AT,2026-07-04T20:56:09.133152,15.28371153,.00393313,97.3875,238.8788,220.7903,139.0391,0,U,43799,999,41661,.49561854E-3,.13945E-3,0
SALSAT,2020-068K,2026-07-04T17:44:40.784352,15.30063013,.00082227,97.8855,189.8756,233.3566,126.6918,0,U,46495,999,31804,.46989133E-3,.13612E-3,0
HAWK-2C,2021-006CT,2026-07-04T16:34:45.172704,15.34887872,.00083167,97.2264,229.6525,130.8284,229.3682,0,U,47502,999,30218,.31520663E-3,.10601E-3,0
HAWK-2A,2021-006CW,2026-07-05T05:09:07.427520,15.34913155,.000782,97.2306,230.8544,132.2933,227.8975,0,U,47505,999,30226,.32772591E-3,.11033E-3,0
HAWK-2B,2021-006CZ,2026-07-04T16:30:00.647136,15.35020288,.00083508,97.2178,228.6413,132.1692,228.0263,0,U,47508,999,30218,.35720155E-3,.12077E-3,0
HAWK-3B,2021-059BE,2026-07-04T12:43:16.243968,15.71070012,.00035371,97.6642,23.8960,241.6890,118.4015,0,U,48931,999,28057,.57884449E-3,.73007E-3,0
HAWK-3C,2021-059BX,2026-07-05T00:56:32.794080,15.71136205,.00037874,97.6756,30.1706,240.3968,119.6917,0,U,48948,999,28065,.56598041E-3,.7157E-3,0
HAWK-3A,2021-059CG,2026-07-04T12:42:38.895840,15.71064393,.00037268,97.6707,26.8019,245.9261,114.1611,0,U,48957,999,28057,.58490043E-3,.73764E-3,0
HAWK-5C,2022-057Y,2026-07-04T21:46:26.926176,15.52046769,.00037398,97.6617,346.7263,23.9765,336.1660,0,U,52754,999,22909,.48235443E-3,.29035E-3,0
HAWK-5B,2022-057AA,2026-07-04T21:46:11.109792,15.52050403,.00043013,97.6632,345.0773,12.9163,347.2198,0,U,52756,999,22909,.49474706E-3,.29793E-3,0
